ONEWEB-0589             
1 54655U 22166P   25347.36238698  .00000048  00000+0  84745-4 0  9991
2 54655  87.9217 281.0537 0001925 104.0750 256.0598 13.21826828146996
ONEWEB-0590             
1 54656U 22166Q   25347.53832049  .00000149  00000+0  32837-3 0  9997
2 54656  87.9224 280.9955 0001361  78.1314 281.9973 13.21825517147009
ONEWEB-0591             
1 54657U 22166R   25347.54997563  .00000036  00000+0  54657-4 0  9992
2 54657  87.9222 281.0166 0001722  79.5963 280.5365 13.21824321147035
ONEWEB-0592             
1 54658U 22166S   25347.55327056  .00000019  00000+0  14008-4 0  9995
2 54658  87.9229 280.9789 0001719  79.4656 280.6671 13.21825171146917
ONEWEB-0593             
1 54659U 22166T   25347.57630839  .00000062  00000+0  11796-3 0  9992
2 54659  87.9218 281.0013 0001886  79.2834 280.8513 13.21826744147026
ONEWEB-0594             
1 54660U 22166U   25347.52035775 -.00000010  00000+0 -56388-4 0  9999
2 54660  87.9218 281.0306 0001825  75.6940 284.4397 13.21824920147039
ONEWEB-0595             
1 54661U 22166V   25347.57300893  .00000103  00000+0  21753-3 0  9999
2 54661  87.9217 280.9929 0001673  70.9988 289.1327 13.21824803147012
ONEWEB-0596             
1 54662U 22166W   25347.62238011  .00000126  00000+0  27313-3 0  9991
2 54662  87.9219 280.9999 0001706  76.3237 283.8087 13.21824586147029
